[{"OBJECT_NAME":"CRYOSAT 2","OBJECT_ID":"2010-013A","EPOCH":"2026-03-09T23:23:15.606816","MEAN_MOTION":14.51908976,"ECCENTRICITY":0.00021015,"INCLINATION":92.0227,"RA_OF_ASC_NODE":253.2602,"ARG_OF_PERICENTER":89.6126,"MEAN_ANOMALY":270.5322,"EPHEMERIS_TYPE":0,"CLASSIFICATION_TYPE":"U","NORAD_CAT_ID":36508,"ELEMENT_SET_NO":999,"REV_AT_EPOCH":84368,"BSTAR":7.5819488e-5,"MEAN_MOTION_DOT":3.08e-6,"MEAN_MOTION_DDOT":0},{"OBJECT_NAME":"FENGYUN 1C DEB","OBJECT_ID":"1999-025AGT","EPOCH":"2026-03-09T13:21:25.799040","MEAN_MOTION":14.39437618,"ECCENTRICITY":0.02228411,"INCLINATION":98.333,"RA_OF_ASC_NODE":88.5192,"ARG_OF_PERICENTER":359.2613,"MEAN_ANOMALY":124.5513,"EPHEMERIS_TYPE":0,"CLASSIFICATION_TYPE":"U","NORAD_CAT_ID":30481,"ELEMENT_SET_NO":999,"REV_AT_EPOCH":99732,"BSTAR":0.00074800795,"MEAN_MOTION_DOT":3.067e-5,"MEAN_MOTION_DDOT":0}]
